{"type": "FeatureCollection", "features": [ {"type": "Feature", "properties": {"norad_id": 29930, "name": "FENGYUN 1C DEB", "group": "fengyun-1c-debris", "lat": -35.512579954365656, "lon": 47.47521526259472, "alt_km": 947.0028768213288, "timestamp": "2025-12-17T15:50:10.051885+00:00", "meta": {"OBJECT_NAME": "FENGYUN 1C DEB", "OBJECT_ID": "1999-025JC", "EPOCH": "2025-12-17T03:42:21.542400", "MEAN_MOTION": 14.20822058, "ECCENTRICITY": 0.01644729, "INCLINATION": 99.0442, "RA_OF_ASC_NODE": 233.4845, "ARG_OF_PERICENTER": 41.0158, "MEAN_ANOMALY": 111.0203, "EPHEMERIS_TYPE": 0, "CLASSIFICATION_TYPE": "U", "NORAD_CAT_ID": 29930, "ELEMENT_SET_NO": 999, "REV_AT_EPOCH": 97953, "BSTAR": 0.00021297533, "MEAN_MOTION_DOT": 4.8e-06, "MEAN_MOTION_DDOT": 0}, "tle": {"line1": "1 29930U 99025JC  25351.15441600  .00000480  00000+0  21298-3 0  9991", "line2": "2 29930  99.0442 233.4845 0164472  41.0158 111.0203 14.20822058979538"}}, "geometry": {"type": "Point", "coordinates": [47.47521526259472, -35.512579954365656]}}, {"type": "Feature", "properties": {"norad_id": 29931, "name": "FENGYUN 1C DEB", "group": "fengyun-1c-debris", "lat": -78.1555039672058, "lon": 74.89053527850096, "alt_km": 910.0980244214134, "timestamp": "2025-12-17T15:50:10.051896+00:00", "meta": {"OBJECT_NAME": "FENGYUN 1C DEB", "OBJECT_ID": "1999-025JD", "EPOCH": "2025-12-17T07:57:33.278688", "MEAN_MOTION": 14.03897632, "ECCENTRICITY": 0.00324419, "INCLINATION": 98.8594, "RA_OF_ASC_NODE": 26.524, "ARG_OF_PERICENTER": 81.3483, "MEAN_ANOMALY": 338.8341, "EPHEMERIS_TYPE": 0, "CLASSIFICATION_TYPE": "U", "NORAD_CAT_ID": 29931, "ELEMENT_SET_NO": 999, "REV_AT_EPOCH": 96877, "BSTAR": 0.00036202697, "MEAN_MOTION_DOT": 5.31e-06, "MEAN_MOTION_DDOT": 0}, "tle": {"line1": "1 29931U 99025JD  25351.33163517  .00000531  00000+0  36203-3 0  9999", "line2": "2 29931  98.8594  26.5240 0032441  81.3483 338.8341 14.03897632968779"}}, "geometry": {"type": "Point", "coordinates": [74.89053527850096, -78.1555039672058]}}, {"type": "Feature", "properties": {"norad_id": 29932, "name": "FENGYUN 1C DEB", "group": "fengyun-1c-debris", "lat": -57.0620269013376, "lon": 168.6365915675348, "alt_km": 871.0772547817269, "timestamp": "2025-12-17T15:50:10.051906+00:00", "meta": {"OBJECT_NAME": "FENGYUN 1C DEB", "OBJECT_ID": "1999-025JE", "EPOCH": "2025-12-17T06:18:51.331104", "MEAN_MOTION": 14.16768268, "ECCENTRICITY": 0.00384395, "INCLINATION": 98.634, "RA_OF_ASC_NODE": 1.815, "ARG_OF_PERICENTER": 57.7328, "MEAN_ANOMALY": 317.8994, "EPHEMERIS_TYPE": 0, "CLASSIFICATION_TYPE": "U", "NORAD_CAT_ID": 29932, "ELEMENT_SET_NO": 999, "REV_AT_EPOCH": 97648, "BSTAR": 0.00026224859, "MEAN_MOTION_DOT": 4.86e-06, "MEAN_MOTION_DDOT": 0}, "tle": {"line1": "1 29932U 99025JE  25351.26309411  .00000486  00000+0  26225-3 0  9999", "line2": "2 29932  98.6340   1.8150 0038439  57.7328 317.8994 14.16768268976485"}}, "geometry": {"type": "Point", "coordinates": [168.6365915675348, -57.0620269013376]}}, {"type": "Feature", "properties": {"norad_id": 29933, "name": "FENGYUN 1C DEB", "group": "fengyun-1c-debris", "lat": 70.41298083576616, "lon": -59.17651562358647, "alt_km": 669.931651602149, "timestamp": "2025-12-17T15:50:10.051917+00:00", "meta": {"OBJECT_NAME": "FENGYUN 1C DEB", "OBJECT_ID": "1999-025JF", "EPOCH": "2025-12-16T13:12:20.012832", "MEAN_MOTION": 14.66015269, "ECCENTRICITY": 0.00047035, "INCLINATION": 98.7489, "RA_OF_ASC_NODE": 93.9976, "ARG_OF_PERICENTER": 314.3722, "MEAN_ANOMALY": 60.4226, "EPHEMERIS_TYPE": 0, "CLASSIFICATION_TYPE": "U", "NORAD_CAT_ID": 29933, "ELEMENT_SET_NO": 999, "REV_AT_EPOCH": 98561, "BSTAR": 0.0024046943, "MEAN_MOTION_DOT": 0.00013152, "MEAN_MOTION_DDOT": 0}, "tle": {"line1": "1 29933U 99025JF  25350.55023163  .00013152  00000+0  24047-2 0  9991", "line2": "2 29933  98.7489  93.9976 0004703 314.3722  60.4226 14.66015269985611"}}, "geometry": {"type": "Point", "coordinates": [-59.17651562358647, 70.41298083576616]}}, {"type": "Feature", "properties": {"norad_id": 29934, "name": "FENGYUN 1C DEB", "group": "fengyun-1c-debris", "lat": 0.22322034569539426, "lon": 38.88569244870165, "alt_km": 722.3436304306442, "timestamp": "2025-12-17T15:50:10.051927+00:00", "meta": {"OBJECT_NAME": "FENGYUN 1C DEB", "OBJECT_ID": "1999-025JG", "EPOCH": "2025-12-17T02:42:39.882240", "MEAN_MOTION": 14.63829053, "ECCENTRICITY": 0.01008012, "INCLINATION": 98.9042, "RA_OF_ASC_NODE": 38.3301, "ARG_OF_PERICENTER": 238.7136, "MEAN_ANOMALY": 120.4163, "EPHEMERIS_TYPE": 0, "CLASSIFICATION_TYPE": "U", "NORAD_CAT_ID": 29934, "ELEMENT_SET_NO": 999, "REV_AT_EPOCH": 99836, "BSTAR": 0.00068346949, "MEAN_MOTION_DOT": 3.781e-05, "MEAN_MOTION_DDOT": 0}, "tle": {"line1": "1 29934U 99025JG  25351.11296160  .00003781  00000+0  68347-3 0  9993", "line2": "2 29934  98.9042  38.3301 0100801 238.7136 120.4163 14.63829053998362"}}, "geometry": {"type": "Point", "coordinates": [38.88569244870165, 0.22322034569539426]}}, {"type": "Feature", "properties": {"norad_id": 29935, "name": "FENGYUN 1C DEB", "group": "fengyun-1c-debris", "lat": -31.080958135379817, "lon": 58.749205957687984, "alt_km": 914.7450275108422, "timestamp": "2025-12-17T15:50:10.051937+00:00", "meta": {"OBJECT_NAME": "FENGYUN 1C DEB", "OBJECT_ID": "1999-025JH", "EPOCH": "2025-12-17T04:12:56.016576", "MEAN_MOTION": 14.14240904, "ECCENTRICITY": 0.01503989, "INCLINATION": 98.4611, "RA_OF_ASC_NODE": 53.1426, "ARG_OF_PERICENTER": 203.3283, "MEAN_ANOMALY": 180.1734, "EPHEMERIS_TYPE": 0, "CLASSIFICATION_TYPE": "U", "NORAD_CAT_ID": 29935, "ELEMENT_SET_NO": 999, "REV_AT_EPOCH": 97605, "BSTAR": 0.00011049287, "MEAN_MOTION_DOT": 1.94e-06, "MEAN_MOTION_DDOT": 0}, "tle": {"line1": "1 29935U 99025JH  25351.17564834  .00000194  00000+0  11049-3 0  9998", "line2": "2 29935  98.4611  53.1426 0150398 203.3283 180.1734 14.14240904976057"}}, "geometry": {"type": "Point", "coordinates": [58.749205957687984, -31.080958135379817]}}, {"type": "Feature", "properties": {"norad_id": 29936, "name": "FENGYUN 1C DEB", "group": "fengyun-1c-debris", "lat": 18.330100097098978, "lon": 102.16392154063492, "alt_km": 847.4416891197443, "timestamp": "2025-12-17T15:50:10.051948+00:00", "meta": {"OBJECT_NAME": "FENGYUN 1C DEB", "OBJECT_ID": "1999-025JJ", "EPOCH": "2025-12-17T07:22:57.575712", "MEAN_MOTION": 14.3531799, "ECCENTRICITY": 0.01142312, "INCLINATION": 98.6564, "RA_OF_ASC_NODE": 104.7036, "ARG_OF_PERICENTER": 173.5233, "MEAN_ANOMALY": 186.7461, "EPHEMERIS_TYPE": 0, "CLASSIFICATION_TYPE": "U", "NORAD_CAT_ID": 29936, "ELEMENT_SET_NO": 999, "REV_AT_EPOCH": 98996, "BSTAR": 0.00017323854, "MEAN_MOTION_DOT": 4.88e-06, "MEAN_MOTION_DDOT": 0}, "tle": {"line1": "1 29936U 99025JJ  25351.30761083  .00000488  00000+0  17324-3 0  9997", "line2": "2 29936  98.6564 104.7036 0114231 173.5233 186.7461 14.35317990989962"}}, "geometry": {"type": "Point", "coordinates": [102.16392154063492, 18.330100097098978]}}, {"type": "Feature", "properties": {"norad_id": 29937, "name": "FENGYUN 1C DEB", "group": "fengyun-1c-debris", "lat": -66.78485509494587, "lon": 33.70115112312764, "alt_km": 880.4025125224807, "timestamp": "2025-12-17T15:50:10.051958+00:00", "meta": {"OBJECT_NAME": "FENGYUN 1C DEB", "OBJECT_ID": "1999-025JK", "EPOCH": "2025-12-17T07:55:34.158144", "MEAN_MOTION": 14.0436118, "ECCENTRICITY": 0.00322231, "INCLINATION": 98.8024, "RA_OF_ASC_NODE": 12.2043, "ARG_OF_PERICENTER": 9.0131, "MEAN_ANOMALY": 57.6125, "EPHEMERIS_TYPE": 0, "CLASSIFICATION_TYPE": "U", "NORAD_CAT_ID": 29937, "ELEMENT_SET_NO": 999, "REV_AT_EPOCH": 97000, "BSTAR": -6.4626941e-05, "MEAN_MOTION_DOT": -1.46e-06, "MEAN_MOTION_DDOT": 0}, "tle": {"line1": "1 29937U 99025JK  25351.33025646 -.00000146  00000+0 -64627-4 0  9991", "line2": "2 29937  98.8024  12.2043 0032223   9.0131  57.6125 14.04361180970001"}}, "geometry": {"type": "Point", "coordinates": [33.70115112312764, -66.78485509494587]}}, {"type": "Feature", "properties": {"norad_id": 29938, "name": "FENGYUN 1C DEB", "group": "fengyun-1c-debris", "lat": -80.8721262022118, "lon": 56.20604938725281, "alt_km": 853.7689325081665, "timestamp": "2025-12-17T15:50:10.051969+00:00", "meta": {"OBJECT_NAME": "FENGYUN 1C DEB", "OBJECT_ID": "1999-025JL", "EPOCH": "2025-12-17T06:05:11.781312", "MEAN_MOTION": 14.07461709, "ECCENTRICITY": 0.00327041, "INCLINATION": 98.8024, "RA_OF_ASC_NODE": 341.1506, "ARG_OF_PERICENTER": 297.7839, "MEAN_ANOMALY": 77.6118, "EPHEMERIS_TYPE": 0, "CLASSIFICATION_TYPE": "U", "NORAD_CAT_ID": 29938, "ELEMENT_SET_NO": 999, "REV_AT_EPOCH": 97120, "BSTAR": 0.00018817261, "MEAN_MOTION_DOT": 2.75e-06, "MEAN_MOTION_DDOT": 0}, "tle": {"line1": "1 29938U 99025JL  25351.25360858  .00000275  00000+0  18817-3 0  9990", "line2": "2 29938  98.8024 341.1506 0032704 297.7839  77.6118 14.07461709971203"}}, "geometry": {"type": "Point", "coordinates": [56.20604938725281, -80.8721262022118]}}, {"type": "Feature", "properties": {"norad_id": 29939, "name": "FENGYUN 1C DEB", "group": "fengyun-1c-debris", "lat": -15.42897150680374, "lon": -6.468551271625323, "alt_km": 894.0927655664655, "timestamp": "2025-12-17T15:50:10.051980+00:00", "meta": {"OBJECT_NAME": "FENGYUN 1C DEB", "OBJECT_ID": "1999-025JM", "EPOCH": "2025-12-16T23:00:04.451040", "MEAN_MOTION": 14.12085698, "ECCENTRICITY": 0.00671276, "INCLINATION": 98.7098, "RA_OF_ASC_NODE": 350.4253, "ARG_OF_PERICENTER": 126.7107, "MEAN_ANOMALY": 254.4337, "EPHEMERIS_TYPE": 0, "CLASSIFICATION_TYPE": "U", "NORAD_CAT_ID": 29939, "ELEMENT_SET_NO": 999, "REV_AT_EPOCH": 97520, "BSTAR": 5.1664254e-05, "MEAN_MOTION_DOT": 5.5e-07, "MEAN_MOTION_DDOT": 0}, "tle": {"line1": "1 29939U 99025JM  25350.95838485  .00000055  00000+0  51664-4 0  9997", "line2": "2 29939  98.7098 350.4253 0067127 126.7107 254.4337 14.12085698975209"}}, "geometry": {"type": "Point", "coordinates": [-6.468551271625323, -15.42897150680374]}}]}